HULIANWANG DIGUI-151    
1 67527U 26013F   26043.26750412 -.00000013  00000+0  12371-3 0  9992
2 67527  50.0190  89.4720 0005437  14.0872 346.0173 13.80322384  3343
HULIANWANG DIGUI-152    
1 67528U 26013G   26043.05356157 -.00000020  00000+0  11798-3 0  9998
2 67528  50.0004  90.3132 0002755 114.3878 245.7303 13.79260730  3317
HULIANWANG DIGUI-153    
1 67529U 26013H   26043.26406470 -.00000125  00000+0  16334-4 0  9994
2 67529  50.0072  89.4374 0001301 322.0954  37.9849 13.79514550  3339
HULIANWANG DIGUI-154    
1 67530U 26013J   26043.33376307  .00000033  00000+0  16974-3 0  9995
2 67530  50.0011  89.1466 0004223 185.3162 174.7688 13.79360636  3346
CZ-12 R/B               
1 67531U 26013K   26044.30903653 -.00000106  00000+0  24917-4 0  9993
2 67531  49.9940  81.6091 0069052 213.8608 145.7882 14.14458025  3534
STARLINK-36587          
1 67532U 26014A   26044.24163960  .00306352  00000+0  15387-2 0  9997
2 67532  97.2837 287.9511 0001756  92.2356 267.9114 15.80899909  4721
STARLINK-36417          
1 67533U 26014B   26044.20492060  .00121559  00000+0  80308-3 0  9990
2 67533  97.2842 287.8474 0001690  94.5235 265.6223 15.75224796  4718
STARLINK-36576          
1 67534U 26014C   26044.17694737  .00212653  00000+0  10802-2 0  9999
2 67534  97.2841 287.8866 0001290  96.2881 263.8535 15.80894408  4710
STARLINK-36574          
1 67535U 26014D   26044.17566188  .00051287  00000+0  26651-3 0  9992
2 67535  97.2846 287.8883 0001160  86.2256 273.9145 15.80850044  4713
STARLINK-36572          
1 67536U 26014E   26044.19115741  .00187578  00000+0  12280-2 0  9995
2 67536  97.2840 287.8668 0001466  98.8181 261.3250 15.75247408  4710
STARLINK-36561          
1 67537U 26014F   26044.19715589  .00161930  00000+0  10639-2 0  9992
2 67537  97.2846 287.8561 0001489  80.4850 279.6584 15.75236343  4712
STARLINK-36397          
1 67538U 26014G   26044.20103860  .00160911  00000+0  10576-2 0  9996
2 67538  97.2846 287.8511 0001637  91.9455 268.1998 15.75230088  4713
