CCSDS_OMM_VERS = 2.0
CREATION_DATE  = 
ORIGINATOR     = 

OBJECT_NAME    = HULIANWANG DIGUI-151
OBJECT_ID      = 2026-013F
CENTER_NAME    = EARTH
REF_FRAME      = TEME
TIME_SYSTEM    = UTC
MEAN_ELEMENT_THEORY = SGP/SGP4

EPOCH          = 2026-02-12T06:25:12.355968
MEAN_MOTION    = 13.80322384
ECCENTRICITY   = .0005437
INCLINATION    = 50.0190
RA_OF_ASC_NODE = 89.4720
ARG_OF_PERICENTER = 14.0872
MEAN_ANOMALY   = 346.0173

EPHEMERIS_TYPE = 0
CLASSIFICATION_TYPE = U
NORAD_CAT_ID   = 67527
ELEMENT_SET_NO = 999
REV_AT_EPOCH   = 334
BSTAR          = .12371E-3
MEAN_MOTION_DOT = -.13E-6
MEAN_MOTION_DDOT = 0

CCSDS_OMM_VERS = 2.0
CREATION_DATE  = 
ORIGINATOR     = 

OBJECT_NAME    = HULIANWANG DIGUI-152
OBJECT_ID      = 2026-013G
CENTER_NAME    = EARTH
REF_FRAME      = TEME
TIME_SYSTEM    = UTC
MEAN_ELEMENT_THEORY = SGP/SGP4

EPOCH          = 2026-02-12T01:17:07.719648
MEAN_MOTION    = 13.79260730
ECCENTRICITY   = .0002755
INCLINATION    = 50.0004
RA_OF_ASC_NODE = 90.3132
ARG_OF_PERICENTER = 114.3878
MEAN_ANOMALY   = 245.7303

EPHEMERIS_TYPE = 0
CLASSIFICATION_TYPE = U
NORAD_CAT_ID   = 67528
ELEMENT_SET_NO = 999
REV_AT_EPOCH   = 331
BSTAR          = .11798E-3
MEAN_MOTION_DOT = -.2E-6
MEAN_MOTION_DDOT = 0

CCSDS_OMM_VERS = 2.0
CREATION_DATE  = 
ORIGINATOR     = 

OBJECT_NAME    = HULIANWANG DIGUI-153
OBJECT_ID      = 2026-013H
CENTER_NAME    = EARTH
REF_FRAME      = TEME
TIME_SYSTEM    = UTC
MEAN_ELEMENT_THEORY = SGP/SGP4

EPOCH          = 2026-02-12T06:20:15.190080
MEAN_MOTION    = 13.79514550
ECCENTRICITY   = .0001301
INCLINATION    = 50.0072
RA_OF_ASC_NODE = 89.4374
ARG_OF_PERICENTER = 322.0954
MEAN_ANOMALY   = 37.9849

EPHEMERIS_TYPE = 0
CLASSIFICATION_TYPE = U
NORAD_CAT_ID   = 67529
ELEMENT_SET_NO = 999
REV_AT_EPOCH   = 333
BSTAR          = .16333987E-4
MEAN_MOTION_DOT = -.125E-5
MEAN_MOTION_DDOT = 0

CCSDS_OMM_VERS = 2.0
CREATION_DATE  = 
ORIGINATOR     = 

OBJECT_NAME    = HULIANWANG DIGUI-154
OBJECT_ID      = 2026-013J
CENTER_NAME    = EARTH
REF_FRAME      = TEME
TIME_SYSTEM    = UTC
MEAN_ELEMENT_THEORY = SGP/SGP4

EPOCH          = 2026-02-12T08:00:37.129248
MEAN_MOTION    = 13.79360636
ECCENTRICITY   = .0004223
INCLINATION    = 50.0011
RA_OF_ASC_NODE = 89.1466
ARG_OF_PERICENTER = 185.3162
MEAN_ANOMALY   = 174.7688

EPHEMERIS_TYPE = 0
CLASSIFICATION_TYPE = U
NORAD_CAT_ID   = 67530
ELEMENT_SET_NO = 999
REV_AT_EPOCH   = 334
BSTAR          = .16974E-3
MEAN_MOTION_DOT = .33E-6
MEAN_MOTION_DDOT = 0

CCSDS_OMM_VERS = 2.0
CREATION_DATE  = 
ORIGINATOR     = 

OBJECT_NAME    = CZ-12 R/B
OBJECT_ID      = 2026-013K
CENTER_NAME    = EARTH
REF_FRAME      = TEME
TIME_SYSTEM    = UTC
MEAN_ELEMENT_THEORY = SGP/SGP4

EPOCH          = 2026-02-13T07:25:00.756192
MEAN_MOTION    = 14.14458025
ECCENTRICITY   = .00690521
INCLINATION    = 49.9940
RA_OF_ASC_NODE = 81.6091
ARG_OF_PERICENTER = 213.8608
MEAN_ANOMALY   = 145.7882

EPHEMERIS_TYPE = 0
CLASSIFICATION_TYPE = U
NORAD_CAT_ID   = 67531
ELEMENT_SET_NO = 999
REV_AT_EPOCH   = 353
BSTAR          = .24916636E-4
MEAN_MOTION_DOT = -.106E-5
MEAN_MOTION_DDOT = 0

CCSDS_OMM_VERS = 2.0
CREATION_DATE  = 
ORIGINATOR     = 

OBJECT_NAME    = STARLINK-36587
OBJECT_ID      = 2026-014A
CENTER_NAME    = EARTH
REF_FRAME      = TEME
TIME_SYSTEM    = UTC
MEAN_ELEMENT_THEORY = SGP/SGP4

EPOCH          = 2026-02-13T05:47:57.661440
MEAN_MOTION    = 15.80899909
ECCENTRICITY   = .0001756
INCLINATION    = 97.2837
RA_OF_ASC_NODE = 287.9511
ARG_OF_PERICENTER = 92.2356
MEAN_ANOMALY   = 267.9114

EPHEMERIS_TYPE = 0
CLASSIFICATION_TYPE = U
NORAD_CAT_ID   = 67532
ELEMENT_SET_NO = 999
REV_AT_EPOCH   = 472
BSTAR          = .15386992E-2
MEAN_MOTION_DOT = .306352E-2
MEAN_MOTION_DDOT = 0

CCSDS_OMM_VERS = 2.0
CREATION_DATE  = 
ORIGINATOR     = 

OBJECT_NAME    = STARLINK-36417
OBJECT_ID      = 2026-014B
CENTER_NAME    = EARTH
REF_FRAME      = TEME
TIME_SYSTEM    = UTC
MEAN_ELEMENT_THEORY = SGP/SGP4

EPOCH          = 2026-02-13T04:55:05.139840
MEAN_MOTION    = 15.75224796
ECCENTRICITY   = .00016901
INCLINATION    = 97.2842
RA_OF_ASC_NODE = 287.8474
ARG_OF_PERICENTER = 94.5235
MEAN_ANOMALY   = 265.6223

EPHEMERIS_TYPE = 0
CLASSIFICATION_TYPE = U
NORAD_CAT_ID   = 67533
ELEMENT_SET_NO = 999
REV_AT_EPOCH   = 471
BSTAR          = .80308154E-3
MEAN_MOTION_DOT = .121559E-2
MEAN_MOTION_DDOT = 0

CCSDS_OMM_VERS = 2.0
CREATION_DATE  = 
ORIGINATOR     = 

OBJECT_NAME    = STARLINK-36576
OBJECT_ID      = 2026-014C
CENTER_NAME    = EARTH
REF_FRAME      = TEME
TIME_SYSTEM    = UTC
MEAN_ELEMENT_THEORY = SGP/SGP4

EPOCH          = 2026-02-13T04:14:48.252768
MEAN_MOTION    = 15.80894408
ECCENTRICITY   = .00012905
INCLINATION    = 97.2841
RA_OF_ASC_NODE = 287.8866
ARG_OF_PERICENTER = 96.2881
MEAN_ANOMALY   = 263.8535

EPHEMERIS_TYPE = 0
CLASSIFICATION_TYPE = U
NORAD_CAT_ID   = 67534
ELEMENT_SET_NO = 999
REV_AT_EPOCH   = 471
BSTAR          = .10802191E-2
MEAN_MOTION_DOT = .212653E-2
MEAN_MOTION_DDOT = 0

CCSDS_OMM_VERS = 2.0
CREATION_DATE  = 
ORIGINATOR     = 

OBJECT_NAME    = STARLINK-36574
OBJECT_ID      = 2026-014D
CENTER_NAME    = EARTH
REF_FRAME      = TEME
TIME_SYSTEM    = UTC
MEAN_ELEMENT_THEORY = SGP/SGP4

EPOCH          = 2026-02-13T04:12:57.186432
MEAN_MOTION    = 15.80850044
ECCENTRICITY   = .00011609
INCLINATION    = 97.2846
RA_OF_ASC_NODE = 287.8883
ARG_OF_PERICENTER = 86.2256
MEAN_ANOMALY   = 273.9145

EPHEMERIS_TYPE = 0
CLASSIFICATION_TYPE = U
NORAD_CAT_ID   = 67535
ELEMENT_SET_NO = 999
REV_AT_EPOCH   = 471
BSTAR          = .26651025E-3
MEAN_MOTION_DOT = .51287E-3
MEAN_MOTION_DDOT = 0

CCSDS_OMM_VERS = 2.0
CREATION_DATE  = 
ORIGINATOR     = 

OBJECT_NAME    = STARLINK-36572
OBJECT_ID      = 2026-014E
CENTER_NAME    = EARTH
REF_FRAME      = TEME
TIME_SYSTEM    = UTC
MEAN_ELEMENT_THEORY = SGP/SGP4

EPOCH          = 2026-02-13T04:35:16.000224
MEAN_MOTION    = 15.75247408
ECCENTRICITY   = .00014666
INCLINATION    = 97.2840
RA_OF_ASC_NODE = 287.8668
ARG_OF_PERICENTER = 98.8181
MEAN_ANOMALY   = 261.3250

EPHEMERIS_TYPE = 0
CLASSIFICATION_TYPE = U
NORAD_CAT_ID   = 67536
ELEMENT_SET_NO = 999
REV_AT_EPOCH   = 471
BSTAR          = .1227994E-2
MEAN_MOTION_DOT = .187578E-2
MEAN_MOTION_DDOT = 0

CCSDS_OMM_VERS = 2.0
CREATION_DATE  = 
ORIGINATOR     = 

OBJECT_NAME    = STARLINK-36561
OBJECT_ID      = 2026-014F
CENTER_NAME    = EARTH
REF_FRAME      = TEME
TIME_SYSTEM    = UTC
MEAN_ELEMENT_THEORY = SGP/SGP4

EPOCH          = 2026-02-13T04:43:54.268896
MEAN_MOTION    = 15.75236343
ECCENTRICITY   = .00014896
INCLINATION    = 97.2846
RA_OF_ASC_NODE = 287.8561
ARG_OF_PERICENTER = 80.4850
MEAN_ANOMALY   = 279.6584

EPHEMERIS_TYPE = 0
CLASSIFICATION_TYPE = U
NORAD_CAT_ID   = 67537
ELEMENT_SET_NO = 999
REV_AT_EPOCH   = 471
BSTAR          = .10639222E-2
MEAN_MOTION_DOT = .16193E-2
MEAN_MOTION_DDOT = 0

CCSDS_OMM_VERS = 2.0
CREATION_DATE  = 
ORIGINATOR     = 

OBJECT_NAME    = STARLINK-36397
OBJECT_ID      = 2026-014G
CENTER_NAME    = EARTH
REF_FRAME      = TEME
TIME_SYSTEM    = UTC
MEAN_ELEMENT_THEORY = SGP/SGP4

EPOCH          = 2026-02-13T04:49:29.735040
MEAN_MOTION    = 15.75230088
ECCENTRICITY   = .0001637
INCLINATION    = 97.2846
RA_OF_ASC_NODE = 287.8511
ARG_OF_PERICENTER = 91.9455
MEAN_ANOMALY   = 268.1998

EPHEMERIS_TYPE = 0
CLASSIFICATION_TYPE = U
NORAD_CAT_ID   = 67538
ELEMENT_SET_NO = 999
REV_AT_EPOCH   = 471
BSTAR          = .10576388E-2
MEAN_MOTION_DOT = .160911E-2
MEAN_MOTION_DDOT = 0

